satname,norad_id,inclination_deg,eccentricity,mean_motion_rev_per_day,perigee_km,apogee_km,l1,l2
STARLINK-1234,45190,53.0341,0.0004994,15.75756559,339.1228905980188,345.83544202493067,1 45190U 20012N   26166.79313842  .00065024  00000+0  41531-3 0  9995,2 45190  53.0341 200.6846 0004994 310.0866  49.9715 15.75756559351282
STARLINK-1269,45197,53.1568,4.06e-05,15.35725155,458.4898543977997,459.0450110377351,1 45197U 20012V   26166.66709731  .00053386  00000+0  15147-2 0  9995,2 45197  53.1568 303.1962 0000406 296.2115  63.8846 15.35725155349938
STARLINK-1154,45198,53.0418,0.0003118,15.64447399,372.7229249942566,376.9340742798295,1 45198U 20012W   26166.96531784  .00034177  00000+0  35325-3 0  9998,2 45198  53.0418 254.8973 0003118  10.3621 349.7457 15.64447399350586
STARLINK-1199,45201,53.1568,0.0002853,15.3572988,456.80284441524145,460.7039740827595,1 45201U 20012Z   26166.63815663  .00048241  00000+0  13704-2 0  9991,2 45201  53.1568 287.5972 0002853 313.7332  46.3434 15.35729880350170
STARLINK-1209,45206,53.0367,0.0006985,15.66544957,364.08640284451394,373.511872628932,1 45206U 20012AE  26166.85345272  .00035826  00000+0  34003-3 0  9995,2 45206  53.0367 215.5358 0006985 276.9922  83.0298 15.66544957350232
STARLINK-1231,45212,53.0397,0.0002345,15.28415237,478.9408730737141,482.15759691792664,1 45212U 20012AL  26166.59350499  .00034772  00000+0  12469-2 0  9990,2 45212  53.0397 283.3957 0002345  69.5449 290.5801 15.28415237350169
STARLINK-1271,45217,53.1565,0.0002647,15.35923421,456.3694820606315,459.98862778010607,1 45217U 20012AR  26166.63469231  .00050140  00000+0  14148-2 0  9998,2 45217  53.1565 287.7285 0002647 312.5403  47.5377 15.35923421350176
STARLINK-1191,45222,53.155,0.0002389,15.39953824,444.61539037802686,447.87608044900844,1 45222U 20012AW  26166.52941053  .00048406  00000+0  11992-2 0  9995,2 45222  53.1550 261.0003 0002389 276.8115  83.2618 15.39953824350544
STARLINK-1212,45223,53.0384,0.0001098,15.67976206,363.95241370097756,365.4331391198766,1 45223U 20012AX  26166.86426335  .00041589  00000+0  37187-3 0  9994,2 45223  53.0384 231.0101 0001098  51.6855 308.4259 15.67976206350971
STARLINK-1215,45225,53.1548,0.0003893,15.3607898,455.056305651211,460.37870196787753,1 45225U 20012AZ  26166.56828904  .00042652  00000+0  12002-2 0  9991,2 45225  53.1548 262.2992 0003893 316.8135  43.2562 15.36078980350487
STARLINK-1221,45227,53.0623,0.0002867,15.45062174,429.2431566783798,433.1476278721093,1 45227U 20012BB  26166.29310123  .00011833  00000+0  25497-3 0  9992,2 45227  53.0623 165.9538 0002867 349.0671  11.0272 15.45062174351783
STARLINK-1222,45228,53.0514,0.0003385,15.55746915,397.6879149655715,402.2767017373253,1 45228U 20012BC  26166.46933882  .00026502  00000+0  38336-3 0  9990,2 45228  53.0514 231.8731 0003385  16.1932 343.9186 15.55746915350816
STARLINK-1226,45229,53.1557,0.0004022,15.45076811,428.41369137990023,433.89108376326294,1 45229U 20012BD  26166.55232934  .00055777  00000+0  11616-2 0  9998,2 45229  53.1557 257.9244 0004022 317.0890  42.9803 15.45076811350483
STARLINK-1227,45230,53.1534,0.0004118,15.45157953,428.1100308500245,433.717965252019,1 45230U 20012BE  26166.49698328  .00051161  00000+0  10639-2 0  9993,2 45230  53.1534 258.2894 0004118 310.2016  49.8630 15.45157953350599
STARLINK-1246,45235,53.1558,0.0001973,15.3574529,457.35876449480384,460.05658340314403,1 45235U 20012BK  26166.67355067  .00033284  00000+0  95033-3 0  9996,2 45235  53.1558 302.7932 0001973 258.2037 101.8745 15.35745290349992
STARLINK-1270,45237,53.0392,0.0004074,15.63963851,373.4686287519826,378.9720791239706,1 45237U 20012BM  26166.45373392  .00088249  00000+0  91451-3 0  9996,2 45237  53.0392 234.6647 0004074 335.4836  24.5984 15.63963851350887
STARLINK-1279,45360,53.0353,0.0001513,15.79604082,330.5463865843958,332.57674136985406,1 45360U 20019A   26166.91668981  .00110370  00000+0  58867-3 0  9997,2 45360  53.0353 334.7774 0001513  85.0102  57.4289 15.79604082  5989
STARLINK-1301,45361,53.0352,9.28e-05,15.81901125,324.442599102691,325.6867133300857,1 45361U 20019B   26166.77625288  .00105801  00000+0  50823-3 0  9992,2 45361  53.0352 337.7643 0000928 271.3252  88.7663 15.81901125346030
STARLINK-1262,45366,53.1549,0.0004097,15.34787812,458.7486038334782,464.3530440364102,1 45366U 20019G   26166.97527929  .00033229  00000+0  97799-3 0  9999,2 45366  53.1549  67.8915 0004097 105.8967 254.2487 15.34787812344813
STARLINK-1273,45367,53.0446,0.0004437,15.58026532,390.36460185695705,396.37363638706574,1 45367U 20019H   26166.90392380  .00040651  00000+0  53589-3 0  9990,2 45367  53.0446  42.4868 0004437  90.5264 269.6256 15.58026532345145
STARLINK-1277,45369,53.0421,0.0003999,15.65205161,369.94914460403743,375.3484230739514,1 45369U 20019K   26166.88350928  .00038558  00000+0  38581-3 0  9999,2 45369  53.0421  36.1864 0003999  78.3226 281.8237 15.65205161345230
STARLINK-1281,45370,53.1591,0.0004905,15.35635776,455.6790851244041,462.3863486166538,1 45370U 20019L   26166.98212103  .00045012  00000+0  12836-2 0  9991,2 45370  53.1591  67.4342 0004905  98.0915 262.0645 15.35635776344825
STARLINK-1300,45374,53.1587,0.0004188,15.36198511,454.5001950905971,460.2256098088892,1 45374U 20019Q   26166.99144960  .00034804  00000+0  97857-3 0  9995,2 45374  53.1587  67.2671 0004188 113.0703 247.0742 15.36198511344826
STARLINK-1302,45375,53.0462,0.0004521,15.68154625,361.13311463384343,367.2295188558437,1 45375U 20019R   26166.86425236  .00043183  00000+0  38292-3 0  9998,2 45375  53.0462  32.1920 0004521  94.3263 265.8269 15.68154625345285
STARLINK-1304,45376,53.0417,0.0003973,15.64058436,373.26464416029376,378.6314401347836,1 45376U 20019S   26166.88794561  .00088472  00000+0  91338-3 0  9991,2 45376  53.0417  33.6397 0003973 112.2966 247.8469 15.64058436345269
STARLINK-1305,45377,53.0372,0.0002584,15.72586009,349.77031835056823,353.2481995371909,1 45377U 20019T   26166.86093332  .00063981  00000+0  46878-3 0  9995,2 45377  53.0372  11.7980 0002584 260.1560  99.9165 15.72586009345579
STARLINK-1319,45379,53.0373,0.0001957,15.78901978,332.2370458051837,334.86400030170626,1 45379U 20019V   26166.92498168  .00078597  00000+0  43540-3 0  9992,2 45379  53.0373   2.8211 0001957 117.1240 242.9980 15.78901978345701
STARLINK-1266,45383,53.0453,8.46e-05,15.66635742,367.96771426565374,369.10925175737975,1 45383U 20019Z   26166.89027660  .00040457  00000+0  38208-3 0  9997,2 45383  53.0453  18.4250 0000846 200.0119 160.0863 15.66635742345478
STARLINK-1267,45384,53.0429,0.0004614,15.6609829,366.968311288575,373.19556772595206,1 45384U 20019AA  26166.86071973  .00040652  00000+0  39211-3 0  9993,2 45384  53.0429   9.8173 0004614 133.0841 227.0561 15.66098290345597
STARLINK-1272,45386,53.0394,0.0005516,15.70760138,353.00838282311634,360.43828074113935,1 45386U 20019AC  26166.79479692  .00056531  00000+0  44796-3 0  9994,2 45386  53.0394 348.6522 0005516 117.1279 243.0300 15.70760138345885
STARLINK-1274,45387,53.02,0.0006089,15.63392632,373.7517566521301,381.9792164802702,1 45387U 20019AD  26166.79692206  .00099131  00000+0  10480-2 0  9998,2 45387  53.0200 348.2876 0006089 178.6273 181.4758 15.63392632345886
STARLINK-1280,45388,53.0357,7.65e-05,15.83913549,318.8733064799135,319.89802744795907,1 45388U 20019AE  26166.77712569  .00111053  00000+0  48493-3 0  9996,2 45388  53.0357 355.5578 0000765 269.0025  91.0910 15.83913549345777
STARLINK-1283,45389,53.0401,0.0001913,15.72596088,350.19312888832883,352.7678805456335,1 45389U 20019AF  26166.80286393  .00058133  00000+0  42648-3 0  9997,2 45389  53.0401 347.5898 0001913 183.8082 176.2922 15.72596088345903
STARLINK-1284,45390,53.0403,0.0003504,15.70898086,353.9692891227696,358.6888029278243,1 45390U 20019AG  26166.82909505  .00052857  00000+0  41712-3 0  9996,2 45390  53.0403  11.4462 0003504  59.6426 300.4937 15.70898086345561
STARLINK-1297,45395,53.0411,0.0005128,15.6918595,357.7708525037515,364.6827440152465,1 45395U 20019AM  26166.91604865  .00051545  00000+0  43672-3 0  9992,2 45395  53.0411  10.1499 0005128  78.0400 282.1191 15.69185950344779
STARLINK-1307,45397,53.0526,0.0001478,15.57255673,394.60242352352,396.60474123967197,1 45397U 20019AP  26166.83833086  .00029532  00000+0  40317-3 0  9998,2 45397  53.0526  17.1323 0001478 138.6389 221.4735 15.57255673345312
STARLINK-1255,45399,53.0348,0.0003716,15.66547353,366.285099294867,371.2994171195669,1 45399U 20019AR  26166.76700260  .00044131  00000+0  41750-3 0  9993,2 45399  53.0348 344.7951 0003716 138.3558 221.7741 15.66547353345740
STARLINK-1260,45404,53.1558,0.0004866,15.38741514,446.50720655938403,453.1521837471064,1 45404U 20019AW  26166.94400362  .00044002  00000+0  11355-2 0  9994,2 45404  53.1558  30.1488 0004866 116.3223 243.8282 15.38741514345057
STARLINK-1263,45405,53.1565,0.0003435,15.35710271,456.4631160096096,461.1600997032083,1 45405U 20019AX  26166.86471568  .00040124  00000+0  11435-2 0  9992,2 45405  53.1565  31.9472 0003435 138.3987 221.7278 15.35710271345020
STARLINK-1265,45406,53.1563,0.0003679,15.39042954,446.42642573183,451.44978759531386,1 45406U 20019AY  26166.93468815  .00048023  00000+0  12258-2 0  9992,2 45406  53.1563  30.1619 0003679 107.6763 252.4643 15.39042954345054
STARLINK-1278,45408,53.0402,0.0005142,15.70117851,355.0958800809094,362.02389916219727,1 45408U 20019BA  26166.81038690  .00053348  00000+0  43467-3 0  9998,2 45408  53.0402   9.5473 0005142 109.5269 250.6304 15.70117851345311
STARLINK-1296,45412,53.1551,0.0004286,15.39229033,445.46202553844705,451.31372266052495,1 45412U 20019BE  26166.90839066  .00049159  00000+0  12466-2 0  9998,2 45412  53.1551  29.9662 0004286 104.1389 256.0092 15.39229033345056
STARLINK-1309,45414,53.0604,0.000514,15.69077156,358.07412323449716,365.0025094597013,1 45414U 20019BG  26166.83566339  .00050614  00000+0  43090-3 0  9998,2 45414  53.0604   3.4422 0005140  72.0259 288.1317 15.69077156345388
